{
    "links": {
        "self": "http://www.neowsapp.com/rest/v1/neo/3986632?api_key=iIulBulltgU6a56xZRHN4H3l9WmuAYTsLGpBGhQ2"
    },
    "id": "3986632",
    "neo_reference_id": "3986632",
    "name": "(2020 AB3)",
    "designation": "2020 AB3",
    "nasa_jpl_url": "http://ssd.jpl.nasa.gov/sbdb.cgi?sstr=3986632",
    "absolute_magnitude_h": 20.5,
    "estimated_diameter": {
        "kilometers": {
            "estimated_diameter_min": 0.2111324448,
            "estimated_diameter_max": 0.4721064988
        },
        "meters": {
            "estimated_diameter_min": 211.1324447897,
            "estimated_diameter_max": 472.1064988055
        },
        "miles": {
            "estimated_diameter_min": 0.1311915784,
            "estimated_diameter_max": 0.2933532873
        },
        "feet": {
            "estimated_diameter_min": 692.6917701639,
            "estimated_diameter_max": 1548.9058855411
        }
    },
    "is_potentially_hazardous_asteroid": false,
    "close_approach_data": [
        {
            "close_approach_date": "1965-06-09",
            "close_approach_date_full": "1965-Jun-09 11:05",
            "epoch_date_close_approach": -143988900000,
            "relative_velocity": {
                "kilometers_per_second": "7.6019479354",
                "kilometers_per_hour": "27367.0125675285",
                "miles_per_hour": "17004.7973367512"
            },
            "miss_distance": {
                "astronomical": "1.1562357363",
                "lunar": "449.7757014207",
                "kilometers": "172970403.368361681",
                "miles": "107478824.7937699578"
            },
            "orbiting_body": "Juptr"
        },
        {
            "close_approach_date": "2020-02-01",
            "close_approach_date_full": "2020-Feb-01 03:26",
            "epoch_date_close_approach": 1580527560000,
            "relative_velocity": {
                "kilometers_per_second": "33.4295098509",
                "kilometers_per_hour": "120346.2354633732",
                "miles_per_hour": "74778.470585561"
            },
            "miss_distance": {
                "astronomical": "0.1863582924",
                "lunar": "72.4933757436",
                "kilometers": "27878803.599877188",
                "miles": "17323085.2748256744"
            },
            "orbiting_body": "Earth"
        },
        {
            "close_approach_date": "2024-10-24",
            "close_approach_date_full": "2024-Oct-24 22:48",
            "epoch_date_close_approach": 1729810080000,
            "relative_velocity": {
                "kilometers_per_second": "8.3163743549",
                "kilometers_per_hour": "29938.9476777573",
                "miles_per_hour": "18602.8977945487"
            },
            "miss_distance": {
                "astronomical": "1.3354931667",
                "lunar": "519.5068418463",
                "kilometers": "199786933.137874929",
                "miles": "124141843.7180908602"
            },
            "orbiting_body": "Juptr"
        },
        {
            "close_approach_date": "2096-02-08",
            "close_approach_date_full": "2096-Feb-08 00:17",
            "epoch_date_close_approach": 3979498620000,
            "relative_velocity": {
                "kilometers_per_second": "29.7960948261",
                "kilometers_per_hour": "107265.941374081",
                "miles_per_hour": "66650.8845165782"
            },
            "miss_distance": {
                "astronomical": "0.1111757653",
                "lunar": "43.2473727017",
                "kilometers": "16631657.684499911",
                "miles": "10334432.8711283318"
            },
            "orbiting_body": "Earth"
        },
        {
            "close_approach_date": "2107-10-19",
            "close_approach_date_full": "2107-Oct-19 15:28",
            "epoch_date_close_approach": 4348481280000,
            "relative_velocity": {
                "kilometers_per_second": "7.3118862443",
                "kilometers_per_hour": "26322.7904794722",
                "miles_per_hour": "16355.9583398698"
            },
            "miss_distance": {
                "astronomical": "1.0481154528",
                "lunar": "407.7169111392",
                "kilometers": "156795839.252965536",
                "miles": "97428416.6960789568"
            },
            "orbiting_body": "Juptr"
        }
    ],
    "orbital_data": {
        "orbit_id": "5",
        "orbit_determination_date": "2020-01-30 07:25:15",
        "first_observation_date": "2020-01-06",
        "last_observation_date": "2020-01-29",
        "data_arc_in_days": 23,
        "observations_used": 34,
        "orbit_uncertainty": "8",
        "minimum_orbit_intersection": ".0759427",
        "jupiter_tisserand_invariant": "3.084",
        "epoch_osculation": "2458865.5",
        "eccentricity": ".824002346572088",
        "semi_major_axis": "2.212255495182113",
        "inclination": "7.983331530706365",
        "ascending_node_longitude": "106.2232136972232",
        "orbital_period": "1201.852996765658",
        "perihelion_distance": ".3893517759350554",
        "perihelion_argument": "143.5835263385733",
        "aphelion_distance": "4.035159214429171",
        "perihelion_time": "2458921.508453948915",
        "mean_anomaly": "343.2233696834215",
        "mean_motion": ".2995374650384087",
        "equinox": "J2000",
        "orbit_class": {
            "orbit_class_type": "APO",
            "orbit_class_description": "Near-Earth asteroid orbits which cross the Earth’s orbit similar to that of 1862 Apollo",
            "orbit_class_range": "a (semi-major axis) > 1.0 AU; q (perihelion) < 1.017 AU"
        }
    },
    "is_sentry_object": false
}